NORAD_CAT_ID,OBJECT_NAME,OBJECT_TYPE,EPOCH,MEAN_MOTION,ECCENTRICITY,INCLINATION,RA_OF_ASC_NODE,ARG_OF_PERICENTER,MEAN_ANOMALY,BSTAR,MEAN_MOTION_DOT,MEAN_MOTION_DDOT,TLE_LINE0,TLE_LINE1,TLE_LINE2,SEMIMAJOR_AXIS,PERIOD,APOGEE,PERIGEE,DECAYED
53416.0,STARLINK-4480,PAYLOAD,2022-10-10 22:00:01,15.26573795,0.0001704,53.2173,307.0652,45.0748,134.6751,-0.043767,-0.010634,0.0,0 STARLINK-4480,1 53416U 22097AE  22283.91668981 -.01063400  00000-0 -43767-1 0  9998,2 53416  53.2173 307.0652 0001704  45.0748 134.6751 15.26573795  1306,6864.201,94.329,487.235,484.896,0.0
53416.0,STARLINK-4480,PAYLOAD,2022-10-11 14:00:01,15.25056464,0.0001617,53.2171,303.9971,48.4858,195.1678,-0.045924,-0.01065414,0.0,0 STARLINK-4480,1 53416U 22097AE  22284.58334491 -.01065414  00000-0 -45924-1 0  9992,2 53416  53.2171 303.9971 0001617  48.4858 195.1678 15.25056464  1303,6868.753000000002,94.423,491.729,489.507,0.0
53416.0,STARLINK-4480,PAYLOAD,2022-10-11 22:00:00,15.242926,0.0001593,53.2173,302.4625,45.8396,228.4332,-0.046705,-0.01059411,0.0,0 STARLINK-4480,1 53416U 22097AE  22284.91667824 -.01059411  00000-0 -46705-1 0  9996,2 53416  53.2173 302.4625 0001593  45.8396 228.4332 15.24292600 10238,6871.047,94.47,494.007,491.818,0.0
53416.0,STARLINK-4480,PAYLOAD,2022-10-12 14:00:01,15.22778776,0.0001615,53.2171,299.4054,39.5276,293.2348,-0.049222,-0.01066426,0.0,0 STARLINK-4480,1 53416U 22097AE  22285.58334491 -.01066426  00000-0 -49222-1 0  9992,2 53416  53.2171 299.4054 0001615  39.5276 293.2348 15.22778776  1305,6875.6,94.564,498.576,496.355,0.0
53416.0,STARLINK-4480,PAYLOAD,2022-10-12 22:00:00,15.22015031,0.000154,53.2172,297.8767,41.3695,319.2734,-0.050037,-0.01060284,0.0,0 STARLINK-4480,1 53416U 22097AE  22285.91667824 -.01060284  00000-0 -50037-1 0  9990,2 53416  53.2172 297.8767 0001540  41.3695 319.2734 15.22015031 10397,6877.9,94.611,500.825,498.706,0.0
53416.0,STARLINK-4480,PAYLOAD,2022-10-13 14:00:01,15.2049871,0.0001467,53.2171,294.8297,48.4168,5.2412,-0.052507,-0.01063589,0.0,0 STARLINK-4480,1 53416U 22097AE  22286.58334491 -.01063589  00000-0 -52507-1 0  9990,2 53416  53.2171 294.8297 0001467  48.4168   5.2412 15.20498710  1305,6882.472,94.706,505.347,503.328,0.0
53416.0,STARLINK-4480,PAYLOAD,2022-10-13 20:00:01,15.19926762,0.0001311,53.2174,293.6869,56.4014,286.2621,-0.053225,-0.01060438,0.0,0 STARLINK-4480,1 53416U 22097AE  22286.83335648 -.01060438  00000-0 -53225-1 0  9991,2 53416  53.2174 293.6869 0001311  56.4014 286.2621 15.19926762 10536,6884.199000000001,94.741,506.966,505.161,0.0
53416.0,STARLINK-4480,PAYLOAD,2022-10-13 22:00:00,15.19737442,0.0001441999999999,53.2173,293.3063,52.8976,25.902,-0.053595,-0.01061808,0.0,0 STARLINK-4480,1 53416U 22097AE  22286.91667824 -.01061808  00000-0 -53595-1 0  9996,2 53416  53.2173 293.3063 0001442  52.8976  25.9020 15.19737442  1301,6884.77,94.753,507.628,505.643,0.0
53416.0,STARLINK-4480,PAYLOAD,2022-10-14 14:00:01,15.18218994,0.0001728,53.2172,290.27,44.1605,82.1791,-0.056004,-0.01075018,0.0,0 STARLINK-4480,1 53416U 22097AE  22287.58334491 -.01075018  00000-0 -56004-1 0  9997,2 53416  53.2172 290.2700 0001728  44.1605  82.1791 15.18218994  1309,6889.36,94.848,512.4159999999998,510.035,0.0
53416.0,STARLINK-4480,PAYLOAD,2022-10-14 16:00:00,15.18030381,0.0001654,53.2173,289.8902,50.5743,171.4513,-0.05646,-0.01077646,0.0,0 STARLINK-4480,1 53416U 22097AE  22287.66667824 -.01077646  00000-0 -56460-1 0  9990,2 53416  53.2173 289.8902 0001654  50.5743 171.4513 15.18030381 10654,6889.931,94.86,512.935,510.656,0.0
53416.0,STARLINK-4480,PAYLOAD,2022-10-14 20:00:01,15.17647927,0.0001527,53.2174,289.1313,44.5854,8.6425,-0.056844,-0.01073347,0.0,0 STARLINK-4480,1 53416U 22097AE  22287.83334491 -.01073347  00000-0 -56844-1 0  9990,2 53416  53.2174 289.1313 0001527  44.5854   8.6425 15.17647927  1303,6891.0880000000025,94.884,514.006,511.901,0.0
53416.0,STARLINK-4480,PAYLOAD,2022-10-15 14:00:01,15.15940696,0.00016,53.2172,285.7263,55.9998,134.8068,-0.059832,-0.01075486,0.0,0 STARLINK-4480,1 53416U 22097AE  22288.58334491 -.01075486  00000-0 -59832-1 0  9999,2 53416  53.2172 285.7263 0001600  55.9998 134.8068 15.15940696  1306,6896.261,94.991,519.23,517.023,0.0
53416.0,STARLINK-4480,PAYLOAD,2022-10-15 22:00:01,15.15181593,0.0001712,53.2173,284.2137,48.7035,161.8307,-0.061236,-0.01077016,0.0,0 STARLINK-4480,1 53416U 22097AE  22288.91668981 -.01077016  00000-0 -61236-1 0  9992,2 53416  53.2173 284.2137 0001712  48.7035 161.8307 15.15181593  1306,6898.564,95.038,521.61,519.248,0.0
53416.0,STARLINK-4480,PAYLOAD,2022-10-16 14:00:01,15.13662852,0.0001606,53.2172,281.1984,52.6379,194.4216,-0.0639179999999999,-0.0107676,0.0,0 STARLINK-4480,1 53416U 22097AE  22289.58334491 -.01076760  00000-0 -63918-1 0  9996,2 53416  53.2172 281.1984 0001606  52.6379 194.4216 15.13662852  1309,6903.178000000001,95.133,526.1519999999998,523.934,0.0
53416.0,STARLINK-4480,PAYLOAD,2022-10-16 22:00:00,15.12901844,0.0001528,53.2174,279.6913,56.4048,207.5817,-0.065166,-0.01074625,0.0,0 STARLINK-4480,1 53416U 22097AE  22289.91667824 -.01074625  00000-0 -65166-1 0  9997,2 53416  53.2174 279.6913 0001528  56.4048 207.5817 15.12901844  1302,6905.493,95.181,528.413,526.303,0.0
53416.0,STARLINK-4480,PAYLOAD,2022-10-17 14:00:01,15.11384666,0.0001733999999999,53.2173,276.6865,40.8949,254.2036,-0.068188,-0.01077458,0.0,0 STARLINK-4480,1 53416U 22097AE  22290.58334491 -.01077458  00000-0 -68188-1 0  9997,2 53416  53.2173 276.6865 0001734  40.8949 254.2036 15.11384666  1308,6910.113,95.277,533.1759999999998,530.78,0.0
53416.0,STARLINK-4480,PAYLOAD,2022-10-17 22:00:00,15.10622174,0.0001351999999999,53.2176,275.1848,61.9491,247.3387,-0.069293,-0.01072248,0.0,0 STARLINK-4480,1 53416U 22097AE  22290.91667824 -.01072248  00000-0 -69293-1 0  9993,2 53416  53.2176 275.1848 0001352  61.9491 247.3387 15.10622174  1308,6912.438,95.325,535.238,533.369,0.0
53416.0,STARLINK-4480,PAYLOAD,2022-10-18 14:00:01,15.09055627,0.0001396999999999,53.2173,272.1896,52.9785,281.9567,-0.020553,-0.003152,0.0,0 STARLINK-4480,1 53416U 22097AE  22291.58334491 -.00315200  00000-0 -20553-1 0  9991,2 53416  53.2173 272.1896 0001397  52.9785 281.9567 15.09055627 11250,6917.221,95.424,540.053,538.12,0.0
53416.0,STARLINK-4480,PAYLOAD,2022-10-18 22:00:00,15.08834968,0.0001701,53.2176,270.6921,48.3548,298.2932,0.00021953,3.207e-05,0.0,0 STARLINK-4480,1 53416U 22097AE  22291.91667824  .00003207  00000-0  21953-3 0  9993,2 53416  53.2176 270.6921 0001701  48.3548 298.2932 15.08834968 11305,6917.896,95.438,540.938,538.5840000000002,0.0
53416.0,STARLINK-4480,PAYLOAD,2022-10-19 14:00:01,15.08904742,0.0001778,53.2164,267.6923,46.1901,323.677,-0.0088868,-0.00139249,0.0,0 STARLINK-4480,1 53416U 22097AE  22292.58334491 -.00139249  00000-0 -88868-2 0  9993,2 53416  53.2164 267.6923 0001778  46.1901 323.6770 15.08904742 11405,6917.683000000001,95.433,540.7769999999998,538.318,0.0
53416.0,STARLINK-4480,PAYLOAD,2022-10-19 22:00:00,15.08591238,0.0001499,53.217,266.1999,47.9736,333.6402,0.017638,0.00290214,0.0,0 STARLINK-4480,1 53416U 22097AE  22292.91667824  .00290214  00000-0  17638-1 0  9993,2 53416  53.2170 266.1999 0001499  47.9736 333.6402 15.08591238  1307,6918.641,95.453,541.543,539.469,0.0
53416.0,STARLINK-4480,PAYLOAD,2022-10-20 08:00:01,15.08760999,0.0001774,53.2164,264.3267,42.6086,83.3013,0.005444,0.00087239,0.0,0 STARLINK-4480,1 53416U 22097AE  22293.33334491  .00087239  00000-0  54440-2 0  9995,2 53416  53.2164 264.3267 0001774  42.6086  83.3013 15.08760999 11517,6918.121999999999,95.443,541.214,538.76,0.0
53416.0,STARLINK-4480,PAYLOAD,2022-10-20 14:00:01,15.08829083,0.0001676999999999,53.2161,263.2032,43.2076,1.3434,-0.0014429,-0.00023172,0.0,0 STARLINK-4480,1 53416U 22097AE  22293.58334491 -.00023172  00000-0 -14429-2 0  9993,2 53416  53.2161 263.2032 0001677  43.2076   1.3434 15.08829083  1303,6917.9140000000025,95.438,540.939,538.619,0.0
53416.0,STARLINK-4480,PAYLOAD,2022-10-20 22:00:00,15.08819773,0.0001595999999999,53.2163,261.7068,50.0508,6.0706,0.0018887999999999,0.00029884,0.0,0 STARLINK-4480,1 53416U 22097AE  22293.91667824  .00029884  00000-0  18888-2 0  9996,2 53416  53.2163 261.7068 0001596  50.0508   6.0706 15.08819773  1302,6917.941999999999,95.439,540.911,538.703,0.0
53416.0,STARLINK-4480,PAYLOAD,2022-10-21 14:00:01,15.08859481,0.0001766,53.2166,258.715,44.5537,34.7363,-0.0012114,-0.00019526,0.0,0 STARLINK-4480,1 53416U 22097AE  22294.58334491 -.00019526  00000-0 -12114-2 0  9991,2 53416  53.2166 258.7150 0001766  44.5537  34.7363 15.08859481  1309,6917.821,95.436,540.908,538.464,0.0
53416.0,STARLINK-4480,PAYLOAD,2022-10-21 22:00:00,15.08860662,0.0001706999999999,53.2165,257.2167,49.8687,41.0279,0.00077854,0.00012131,0.0,0 STARLINK-4480,1 53416U 22097AE  22294.91667824  .00012131  00000-0  77854-3 0  9993,2 53416  53.2165 257.2167 0001707  49.8687  41.0279 15.08860662  1309,6917.816999999999,95.436,540.863,538.501,0.0
53416.0,STARLINK-4480,PAYLOAD,2022-10-22 14:00:01,15.0885378,0.0001810999999999,53.2169,254.2243,45.9333,68.193,-0.0029760999999999,-0.0004736,0.0,0 STARLINK-4480,1 53416U 22097AE  22295.58334491 -.00047360  00000-0 -29761-2 0  9995,2 53416  53.2169 254.2243 0001811  45.9333  68.1930 15.08853780  1303,6917.8380000000025,95.437,540.956,538.45,0.0
53416.0,STARLINK-4480,PAYLOAD,2022-10-22 22:00:00,15.08842837,0.0001821999999999,53.2172,252.7273,52.1567,73.5644,0.0014555999999999,0.00022956,0.0,0 STARLINK-4480,1 53416U 22097AE  22295.91667824  .00022956  00000-0  14556-2 0  9999,2 53416  53.2172 252.7273 0001822  52.1567  73.5644 15.08842837  1307,6917.871999999999,95.437,540.997,538.476,0.0
53416.0,STARLINK-4480,PAYLOAD,2022-10-23 00:00:02,15.08857596,0.0001851999999999,53.2172,252.3537,50.8468,167.8346,-0.00025542,-4.353e-05,0.0,0 STARLINK-4480,1 53416U 22097AE  22296.00002315 -.00004353  00000-0 -25542-3 0  9999,2 53416  53.2172 252.3537 0001852  50.8468 167.8346 15.08857596 11916,6917.8269999999975,95.436,540.9730000000002,538.41,0.0
